NORAD_CAT_ID,OBJECT_NAME,OBJECT_TYPE,EPOCH,MEAN_MOTION,ECCENTRICITY,INCLINATION,RA_OF_ASC_NODE,ARG_OF_PERICENTER,MEAN_ANOMALY,BSTAR,MEAN_MOTION_DOT,MEAN_MOTION_DDOT,TLE_LINE0,TLE_LINE1,TLE_LINE2,SEMIMAJOR_AXIS,PERIOD,APOGEE,PERIGEE,DECAYED
53611.0,STARLINK-4650,PAYLOAD,2023-09-30 04:15:07,15.0884718,0.0001901,53.2166,276.5084,87.0906,273.0303,0.00010045,1.311e-05,0.0,0 STARLINK-4650,1 53611U 22104Z   23273.17717011  .00001311  00000-0  10045-3 0  9996,2 53611  53.2166 276.5084 0001901  87.0906 273.0303 15.08847180 60471,6917.858,95.437,541.039,538.408,0.0
53611.0,STARLINK-4650,PAYLOAD,2023-09-30 16:58:12,15.08842456,0.0001816,53.215,274.1288,79.5179,280.6017,-1.3554e-05,-5.04e-06,0.0,0 STARLINK-4650,1 53611U 22104Z   23273.70709019 -.00000504  00000-0 -13554-4 0  9998,2 53611  53.2150 274.1288 0001816  79.5179 280.6017 15.08842456 60553,6917.873,95.437,540.994,538.482,0.0
53611.0,STARLINK-4650,PAYLOAD,2023-10-01 08:52:04,15.088423,0.0001983,53.2167,271.1562,95.7972,264.3246,5.0564e-05,5.17e-06,0.0,0 STARLINK-4650,1 53611U 22104Z   23274.36949082  .00000517  00000-0  50564-4 0  9991,2 53611  53.2167 271.1562 0001983  95.7972 264.3246 15.08842300 61348,6917.873,95.437,541.11,538.367,0.0
53611.0,STARLINK-4650,PAYLOAD,2023-10-01 16:48:59,15.08837113,0.0001901,53.2155,269.6675,91.1188,269.0022,-6.3839e-06,-3.9e-06,0.0,0 STARLINK-4650,1 53611U 22104Z   23274.70069351 -.00000390  00000-0 -63839-5 0  9992,2 53611  53.2155 269.6675 0001901  91.1188 269.0022 15.08837113 60700,6917.889,95.438,541.069,538.439,0.0
53611.0,STARLINK-4650,PAYLOAD,2023-10-02 07:07:28,15.08834442,0.0002007,53.217,266.9905,93.9101,266.2121,-2.0634e-05,-6.17e-06,0.0,0 STARLINK-4650,1 53611U 22104Z   23275.29686288 -.00000617  00000-0 -20634-4 0  9998,2 53611  53.2170 266.9905 0002007  93.9101 266.2121 15.08834442 60796,6917.897,95.438,541.151,538.374,0.0
53611.0,STARLINK-4650,PAYLOAD,2023-10-02 16:39:47,15.08837747,0.0001904,53.2169,265.2075,90.7994,269.3216,6.241e-05,7.05e-06,0.0,0 STARLINK-4650,1 53611U 22104Z   23275.69429977  .00000705  00000-0  62410-4 0  9996,2 53611  53.2169 265.2075 0001904  90.7994 269.3216 15.08837747 61548,6917.887,95.438,541.069,538.435,0.0
53611.0,STARLINK-4650,PAYLOAD,2023-10-03 05:22:52,15.08843419,0.0001661,53.2158,262.8273,94.6431,265.4751,0.00018657,2.683e-05,0.0,0 STARLINK-4650,1 53611U 22104Z   23276.22421442  .00002683  00000-0  18657-3 0  9995,2 53611  53.2158 262.8273 0001661  94.6431 265.4751 15.08843419 60934,6917.87,95.437,540.884,538.586,0.0
53611.0,STARLINK-4650,PAYLOAD,2023-10-03 08:33:38,15.08849071,0.000176,53.2156,262.2322,93.8742,266.2452,0.00023707,3.488e-05,0.0,0 STARLINK-4650,1 53611U 22104Z   23276.35669415  .00003488  00000-0  23707-3 0  9999,2 53611  53.2156 262.2322 0001760  93.8742 266.2452 15.08849071 61643,6917.853,95.437,540.935,538.5,0.0
53611.0,STARLINK-4650,PAYLOAD,2023-10-03 16:30:34,15.08838259,0.0001772,53.2156,260.7447,91.1417,268.9778,6.4585e-05,7.4e-06,0.0,0 STARLINK-4650,1 53611U 22104Z   23276.68790037  .00000740  00000-0  64585-4 0  9998,2 53611  53.2156 260.7447 0001772  91.1417 268.9778 15.08838259 61003,6917.886,95.438,540.977,538.525,0.0
53611.0,STARLINK-4650,PAYLOAD,2023-10-04 00:27:30,15.08835315,0.0001645,53.2156,259.2562,91.5272,268.5909,0.00020409,2.961e-05,0.0,0 STARLINK-4650,1 53611U 22104Z   23277.01910308  .00002961  00000-0  20409-3 0  9994,2 53611  53.2156 259.2562 0001645  91.5272 268.5909 15.08835315 61749,6917.895,95.438,540.898,538.622,0.0
53611.0,STARLINK-4650,PAYLOAD,2023-10-04 16:21:21,15.08849425,0.0001767,53.2157,256.2847,89.0678,271.0517,0.00025576,3.786e-05,0.0,0 STARLINK-4650,1 53611U 22104Z   23277.68149799  .00003786  00000-0  25576-3 0  9991,2 53611  53.2157 256.2847 0001767  89.0678 271.0517 15.08849425 61842,6917.852,95.437,540.939,538.494,0.0
53611.0,STARLINK-4650,PAYLOAD,2023-10-05 01:53:40,15.08848852,0.0001849,53.2161,254.5003,98.498,261.6221,0.00026646,3.956e-05,0.0,0 STARLINK-4650,1 53611U 22104Z   23278.07893801  .00003956  00000-0  26646-3 0  9993,2 53611  53.2161 254.5003 0001849  98.4980 261.6221 15.08848852 61214,6917.853,95.437,540.997,538.439,0.0
53611.0,STARLINK-4650,PAYLOAD,2023-10-05 08:15:12,15.08859399,0.0001977,53.2158,253.3099,100.1961,259.9254,0.00043063,6.576e-05,0.0,0 STARLINK-4650,1 53611U 22104Z   23278.34389294  .00006576  00000-0  43063-3 0  9992,2 53611  53.2158 253.3099 0001977 100.1961 259.9254 15.08859399 61948,6917.821,95.436,541.054,538.318,0.0
53611.0,STARLINK-4650,PAYLOAD,2023-10-06 01:44:27,15.0884706,0.0001648,53.216,250.0397,100.861,259.2567,0.00019845,2.872e-05,0.0,0 STARLINK-4650,1 53611U 22104Z   23279.07253560  .00002872  00000-0  19845-3 0  9995,2 53611  53.2160 250.0397 0001648 100.8610 259.2567 15.08847060 61367,6917.859,95.437,540.864,538.584,0.0
53611.0,STARLINK-4650,PAYLOAD,2023-10-06 08:05:59,15.08856206,0.0001615,53.216,248.8494,100.4628,259.6546,0.00049706,7.635e-05,0.0,0 STARLINK-4650,1 53611U 22104Z   23279.33749286  .00007635  00000-0  49706-3 0  9990,2 53611  53.2160 248.8494 0001615 100.4628 259.6546 15.08856206 62093,6917.831,95.437,540.813,538.579,0.0
53611.0,STARLINK-4650,PAYLOAD,2023-10-07 01:35:14,15.08839172,0.0001572,53.2163,245.5796,101.5353,258.5815,0.00036982,5.602e-05,0.0,0 STARLINK-4650,1 53611U 22104Z   23280.06613993  .00005602  00000-0  36982-3 0  9991,2 53611  53.2163 245.5796 0001572 101.5353 258.5815 15.08839172 61510,6917.883,95.438,540.835,538.66,0.0
53611.0,STARLINK-4650,PAYLOAD,2023-10-07 04:46:00,15.0883889,0.0001616,53.2155,244.9794,98.1608,261.9567,0.00026588,3.946e-05,0.0,0 STARLINK-4650,1 53611U 22104Z   23280.19861944  .00003946  00000-0  26588-3 0  9996,2 53611  53.2155 244.9794 0001616  98.1608 261.9567 15.08838890 62222,6917.884,95.438,540.867,538.631,0.0
53611.0,STARLINK-4650,PAYLOAD,2023-10-07 14:18:19,15.08835608,0.0001666,53.2161,243.2006,98.5912,261.5269,0.00032806,4.936e-05,0.0,0 STARLINK-4650,1 53611U 22104Z   23280.59606281  .00004936  00000-0  32806-3 0  9991,2 53611  53.2161 243.2006 0001666  98.5912 261.5269 15.08835608 61592,6917.894,95.438,540.911,538.606,0.0
53611.0,STARLINK-4650,PAYLOAD,2023-10-07 20:39:52,15.08841025,0.0001556,53.2156,242.0106,94.8994,265.2176,0.00032524,4.892e-05,0.0,0 STARLINK-4650,1 53611U 22104Z   23280.86102213  .00004892  00000-0  32524-3 0  9995,2 53611  53.2156 242.0106 0001556  94.8994 265.2176 15.08841025 62321,6917.877,95.437,540.819,538.666,0.0
53611.0,STARLINK-4650,PAYLOAD,2023-10-08 04:36:47,15.0885317,0.0001636,53.2162,240.5262,107.4643,252.6528,0.00069051,0.00010722,0.0,0 STARLINK-4650,1 53611U 22104Z   23281.19221952  .00010722  00000-0  69051-3 0  9998,2 53611  53.2162 240.5262 0001636 107.4643 252.6528 15.08853170 61688,6917.84,95.437,540.837,538.573,0.0
53611.0,STARLINK-4650,PAYLOAD,2023-10-08 14:09:06,15.08855904,0.0001377,53.2155,238.7427,102.9407,257.1739,0.00060982,9.435e-05,0.0,0 STARLINK-4650,1 53611U 22104Z   23281.58965741  .00009435  00000-0  60982-3 0  9995,2 53611  53.2155 238.7427 0001377 102.9407 257.1739 15.08855904 62437,6917.832,95.437,540.649,538.744,0.0
53611.0,STARLINK-4650,PAYLOAD,2023-10-09 02:52:11,15.08848555,0.0001952,53.2174,236.3627,96.8804,263.241,0.00028915,4.318e-05,0.0,0 STARLINK-4650,1 53611U 22104Z   23282.11957915  .00004318  00000-0  28915-3 0  9994,2 53611  53.2174 236.3627 0001952  96.8804 263.2410 15.08848555 61825,6917.854,95.437,541.07,538.369,0.0
53611.0,STARLINK-4650,PAYLOAD,2023-10-09 13:59:53,15.08848624,0.0001555,53.216,234.2805,83.0866,277.0303,0.00025596,3.789e-05,0.0,0 STARLINK-4650,1 53611U 22104Z   23282.58325706  .00003789  00000-0  25596-3 0  9995,2 53611  53.2160 234.2805 0001555  83.0866 277.0303 15.08848624 62585,6917.854,95.437,540.795,538.643,0.0
53611.0,STARLINK-4650,PAYLOAD,2023-10-09 20:21:26,15.08841395,0.0002167,53.2163,233.0924,83.276,276.8478,9.4588e-05,1.217e-05,0.0,0 STARLINK-4650,1 53611U 22104Z   23282.84822122  .00001217  00000-0  94588-4 0  9990,2 53611  53.2163 233.0924 0002167  83.2760 276.8478 15.08841395 62625,6917.876,95.437,541.24,538.242,0.0
53611.0,STARLINK-4650,PAYLOAD,2023-10-10 02:42:58,15.08836525,0.0001817,53.2156,231.9009,83.2146,276.9052,0.00010417,1.37e-05,0.0,0 STARLINK-4650,1 53611U 22104Z   23283.11318278  .00001370  00000-0  10417-3 0  9991,2 53611  53.2156 231.9009 0001817  83.2146 276.9052 15.08836525 61972,6917.891,95.438,541.013,538.499,0.0
53611.0,STARLINK-4650,PAYLOAD,2023-10-10 05:53:45,15.08849954,0.0001581,53.2154,231.306,82.0219,278.0952,0.00079988,0.00012468,0.0,0 STARLINK-4650,1 53611U 22104Z   23283.24565982  .00012468  00000-0  79988-3 0  9999,2 53611  53.2154 231.3060 0001581  82.0219 278.0952 15.08849954 61991,6917.85,95.437,540.809,538.621,0.0
53611.0,STARLINK-4650,PAYLOAD,2023-10-10 13:50:41,15.08837952,0.0001394,53.2151,229.8203,92.705,267.4102,0.00046943,7.191e-05,0.0,0 STARLINK-4650,1 53611U 22104Z   23283.57686382  .00007191  00000-0  46943-3 0  9995,2 53611  53.2151 229.8203 0001394  92.7050 267.4102 15.08837952 62739,6917.887,95.438,540.716,538.787,0.0
53611.0,STARLINK-4650,PAYLOAD,2023-10-10 20:12:13,15.08841465,0.0002105,53.2159,228.6319,89.6499,270.4734,0.00080882,0.00012608,0.0,0 STARLINK-4650,1 53611U 22104Z   23283.84182841  .00012608  00000-0  80882-3 0  9995,2 53611  53.2159 228.6319 0002105  89.6499 270.4734 15.08841465 62778,6917.876,95.437,541.197,538.285,0.0
53611.0,STARLINK-4650,PAYLOAD,2023-10-11 13:41:28,15.08836689,0.0001769,53.2162,225.3597,88.2126,271.9069,0.00091816,0.00014353,0.0,0 STARLINK-4650,1 53611U 22104Z   23284.57047317  .00014353  00000-0  91816-3 0  9992,2 53611  53.2162 225.3597 0001769  88.2126 271.9069 15.08836689 62882,6917.891,95.438,540.979,538.532,0.0
53611.0,STARLINK-4650,PAYLOAD,2023-10-12 13:32:16,15.08843,0.000201,53.2168,220.8988,85.4649,274.6572,0.0010765,0.00016887,0.0,0 STARLINK-4650,1 53611U 22104Z   23285.56407596  .00016887  00000-0  10765-2 0  9998,2 53611  53.2168 220.8988 0002010  85.4649 274.6572 15.08843000 63033,6917.871,95.437,541.127,538.346,0.0
